[{"OBJECT_NAME":"ONEWEB-0509","OBJECT_ID":"2022-138Q","EPOCH":"2026-03-09T16:42:24.369696","MEAN_MOTION":13.19725247,"ECCENTRICITY":0.00016995,"INCLINATION":87.9241,"RA_OF_ASC_NODE":324.7798,"ARG_OF_PERICENTER":83.8693,"MEAN_ANOMALY":276.2634,"EPHEMERIS_TYPE":0,"CLASSIFICATION_TYPE":"U","NORAD_CAT_ID":54127,"ELEMENT_SET_NO":999,"REV_AT_EPOCH":16368,"BSTAR":0.00019448746,"MEAN_MOTION_DOT":9.1e-7,"MEAN_MOTION_DDOT":0},{"OBJECT_NAME":"SL-14 DEB","OBJECT_ID":"1991-056DK","EPOCH":"2026-03-08T13:22:40.137600","MEAN_MOTION":13.34873945,"ECCENTRICITY":0.00896209,"INCLINATION":82.5589,"RA_OF_ASC_NODE":166.4667,"ARG_OF_PERICENTER":161.3371,"MEAN_ANOMALY":199.1084,"EPHEMERIS_TYPE":0,"CLASSIFICATION_TYPE":"U","NORAD_CAT_ID":47085,"ELEMENT_SET_NO":999,"REV_AT_EPOCH":26030,"BSTAR":0.0015174086,"MEAN_MOTION_DOT":7.94e-6,"MEAN_MOTION_DDOT":0}]
